CAS-2T & KS-1Q          
1 41847U 16066G   20211.37176901  .00000042  00000-0  15826-4 0  9995
2 41847  98.6508 262.3026 0366800 104.0061 260.2189 14.38080652195446
NAYIF-1 (EO-88)         
1 42017U 17008BX  20211.17308656  .00001185  00000-0  48025-4 0  9990
2 42017  97.3575 278.1239 0006672 159.9266 200.2237 15.26591928191918
MAX VALIER SAT          
1 42778U 17036P   20211.20408842  .00000658  00000-0  31144-4 0  9995
2 42778  97.3020 263.6797 0010806 229.8367 130.1924 15.22679170172081
RADFXSAT (FOX-1B)       
1 43017U 17073E   20211.33579109  .00000242  00000-0  24911-4 0  9995
2 43017  97.7202 121.9557 0255320 273.9580  83.2483 14.78980296145355
FOX-1D (AO-92)          
1 43137U 18004AC  20211.17320356  .00000725  00000-0  32691-4 0  9993
2 43137  97.4438 282.0492 0007444 268.8347  91.2038 15.24186979141392
DIWATA-2B               
1 43678U 18084H   20211.60157790 -.00000315  00000-0 -25610-4 0  9999
2 43678  97.8894 330.0147 0010957  43.5616 316.6469 14.91638062 95302
ES'HAIL 2               
1 43700U 18090A   20211.19446917  .00000132  00000-0  00000-0 0  9995
2 43700   0.0180  67.5423 0001988  81.9203 253.6107  1.00270698  6127
FOX-1CLIFF (AO-95)      
1 43770U 18099N   20211.13973518  .00000518  00000-0  52483-4 0  9991
2 43770  97.7038 281.7902 0015873  61.6773 298.6047 14.95011402 90147
ITASAT 1                
1 43786U 18099AE  20211.46182685  .00000095  00000-0  13761-4 0  9997
2 43786  97.7053 282.5562 0016308  54.3002 305.9733 14.95346274 90210
JY1SAT (JO-97)          
1 43803U 18099AX  20211.47134517  .00000472  00000-0  47713-4 0  9992
2 43803  97.7013 282.3744 0016297  54.9476 305.3271 14.95527990 90211
PSAT2 (NO-104)          
1 44354U 19036R   20211.40302205  .00013150  00000-0  19142-3 0  9991
2 44354  28.5296 105.0012 0361996  39.2446 323.3815 15.04072789 60133
BRICSAT2 (NO-103)       
1 44355U 19036S   20210.99111878  .00024294  00000-0  33667-3 0  9998
2 44355  28.5294  96.7491 0338772  52.6402 310.4552 15.09987990 60191
JAISAT-1                
1 44419U 19038F   20211.35834457  .00000700  00000-0  43392-4 0  9990
2 44419  97.5412 172.4708 0021345 350.9986   9.0859 15.12835907 58933
DUCHIFAT-3              
1 44854U 19089C   20211.39065944  .00000155  00000-0  18960-4 0  9997
2 44854  36.9683 210.5103 0008231  34.4269 325.7003 14.99089238 34590
RS-44 & BREEZE-KM R/B   
1 44909U 19096E   20211.26488763  .00000015  00000-0  98413-5 0  9997
2 44909  82.5239 327.5300 0218359 128.6135 233.4742 12.79708115 27534
ORBITAL FACTORY 2 (OF-2)
1 45113U 19071C   20211.71526070  .00001313  00000-0  51441-4 0  9993
2 45113  51.6437 159.3743 0012609 207.9785 152.0520 15.33470911 27615
HUSKYSAT-1              
1 45119U 19071J   20211.23169507  .00000982  00000-0  41151-4 0  9992
2 45119  51.6434 161.3960 0011944 202.4192 157.6269 15.33677107 27533
